{
  "type": "FeatureCollection",
  "features": [
    {
      "type": "Feature",
      "properties": {
        "norad_id": 43783,
        "name": "KAZSTSAT",
        "group": "resource",
        "lat": -14.026252889651772,
        "lon": 33.81735386564101,
        "alt_km": 571.5580218867572,
        "timestamp": "2025-12-23T05:02:11.681286+00:00",
        "meta_object_name": "KAZSTSAT",
        "meta_object_id": "2018-099AB",
        "meta_epoch": "2025-12-22T14:41:03.844320",
        "meta_mean_motion": 14.9936775,
        "meta_eccentricity": 0.00061051,
        "meta_inclination": 97.4521,
        "meta_ra_of_asc_node": 31.3714,
        "meta_arg_of_pericenter": 285.7484,
        "meta_mean_anomaly": 74.3066,
        "meta_ephemeris_type": 0,
        "meta_classification_type": "U",
        "meta_norad_cat_id": 43783,
        "meta_element_set_no": 999,
        "meta_rev_at_epoch": 38484,
        "meta_bstar": 3.8242971e-05,
        "meta_mean_motion_dot": 4.12e-06,
        "meta_mean_motion_ddot": 0,
        "tle_line1": "1 43783U 18099AB  25356.61185005  .00000412  00000+0  38243-4 0  9999",
        "tle_line2": "2 43783  97.4521  31.3714 0006105 285.7484  74.3066 14.99367750384848"
      },
      "geometry": {
        "type": "Point",
        "coordinates": [
          33.81735386564101,
          -14.026252889651772
        ]
      }
    },
    {
      "type": "Feature",
      "properties": {
        "norad_id": 43831,
        "name": "SAUDISAT 5A",
        "group": "resource",
        "lat": -49.141952937248526,
        "lon": 65.7616482462811,
        "alt_km": 495.8193514650893,
        "timestamp": "2025-12-23T05:02:11.681296+00:00",
        "meta_object_name": "SAUDISAT 5A",
        "meta_object_id": "2018-102A",
        "meta_epoch": "2025-12-22T22:57:28.480032",
        "meta_mean_motion": 15.25775685,
        "meta_eccentricity": 0.00112326,
        "meta_inclination": 97.3334,
        "meta_ra_of_asc_node": 56.9504,
        "meta_arg_of_pericenter": 44.6483,
        "meta_mean_anomaly": 315.5658,
        "meta_ephemeris_type": 0,
        "meta_classification_type": "U",
        "meta_norad_cat_id": 43831,
        "meta_element_set_no": 999,
        "meta_rev_at_epoch": 38878,
        "meta_bstar": 0.00026255251,
        "meta_mean_motion_dot": 6.646e-05,
        "meta_mean_motion_ddot": 0,
        "tle_line1": "1 43831U 18102A   25356.95657963  .00006646  00000+0  26255-3 0  9996",
        "tle_line2": "2 43831  97.3334  56.9504 0011232  44.6483 315.5658 15.25775685388785"
      },
      "geometry": {
        "type": "Point",
        "coordinates": [
          65.7616482462811,
          -49.141952937248526
        ]
      }
    },
    {
      "type": "Feature",
      "properties": {
        "norad_id": 43833,
        "name": "SAUDISAT 5B",
        "group": "resource",
        "lat": 15.62189269284256,
        "lon": 57.8898227036963,
        "alt_km": 481.1248024863189,
        "timestamp": "2025-12-23T05:02:11.681306+00:00",
        "meta_object_name": "SAUDISAT 5B",
        "meta_object_id": "2018-102C",
        "meta_epoch": "2025-12-22T22:40:24.208896",
        "meta_mean_motion": 15.26122766,
        "meta_eccentricity": 0.00119745,
        "meta_inclination": 97.3431,
        "meta_ra_of_asc_node": 59.6958,
        "meta_arg_of_pericenter": 46.6576,
        "meta_mean_anomaly": 313.5658,
        "meta_ephemeris_type": 0,
        "meta_classification_type": "U",
        "meta_norad_cat_id": 43833,
        "meta_element_set_no": 999,
        "meta_rev_at_epoch": 38889,
        "meta_bstar": 0.00026020921,
        "meta_mean_motion_dot": 6.657e-05,
        "meta_mean_motion_ddot": 0,
        "tle_line1": "1 43833U 18102C   25356.94472464  .00006657  00000+0  26021-3 0  9991",
        "tle_line2": "2 43833  97.3431  59.6958 0011974  46.6576 313.5658 15.26122766388893"
      },
      "geometry": {
        "type": "Point",
        "coordinates": [
          57.8898227036963,
          15.62189269284256
        ]
      }
    },
    {
      "type": "Feature",
      "properties": {
        "norad_id": 44622,
        "name": "GAOFEN-10R",
        "group": "resource",
        "lat": 47.624782965162936,
        "lon": 133.65823779168832,
        "alt_km": 618.7503987091759,
        "timestamp": "2025-12-23T05:02:11.681316+00:00",
        "meta_object_name": "GAOFEN-10R",
        "meta_object_id": "2019-066A",
        "meta_epoch": "2025-12-22T23:35:11.785920",
        "meta_mean_motion": 14.82825081,
        "meta_eccentricity": 0.0007164,
        "meta_inclination": 98.0292,
        "meta_ra_of_asc_node": 304.5297,
        "meta_arg_of_pericenter": 11.7963,
        "meta_mean_anomaly": 348.3417,
        "meta_ephemeris_type": 0,
        "meta_classification_type": "U",
        "meta_norad_cat_id": 44622,
        "meta_element_set_no": 999,
        "meta_rev_at_epoch": 33626,
        "meta_bstar": 0.00019301176,
        "meta_mean_motion_dot": 1.508e-05,
        "meta_mean_motion_ddot": 0,
        "tle_line1": "1 44622U 19066A   25356.98277530  .00001508  00000+0  19301-3 0  9992",
        "tle_line2": "2 44622  98.0292 304.5297 0007164  11.7963 348.3417 14.82825081336264"
      },
      "geometry": {
        "type": "Point",
        "coordinates": [
          133.65823779168832,
          47.624782965162936
        ]
      }
    },
    {
      "type": "Feature",
      "properties": {
        "norad_id": 44804,
        "name": "CARTOSAT-3",
        "group": "resource",
        "lat": -43.552340660873135,
        "lon": -130.49305696782596,
        "alt_km": 524.3146617551083,
        "timestamp": "2025-12-23T05:02:11.681327+00:00",
        "meta_object_name": "CARTOSAT-3",
        "meta_object_id": "2019-081A",
        "meta_epoch": "2025-12-22T21:43:53.338080",
        "meta_mean_motion": 15.19232492,
        "meta_eccentricity": 0.00137801,
        "meta_inclination": 97.4569,
        "meta_ra_of_asc_node": 56.3596,
        "meta_arg_of_pericenter": 51.2053,
        "meta_mean_anomaly": 309.041,
        "meta_ephemeris_type": 0,
        "meta_classification_type": "U",
        "meta_norad_cat_id": 44804,
        "meta_element_set_no": 999,
        "meta_rev_at_epoch": 33670,
        "meta_bstar": 0.00021660058,
        "meta_mean_motion_dot": 4.505e-05,
        "meta_mean_motion_ddot": 0,
        "tle_line1": "1 44804U 19081A   25356.90547845  .00004505  00000+0  21660-3 0  9993",
        "tle_line2": "2 44804  97.4569  56.3596 0013780  51.2053 309.0410 15.19232492336705"
      },
      "geometry": {
        "type": "Point",
        "coordinates": [
          -130.49305696782596,
          -43.552340660873135
        ]
      }
    },
    {
      "type": "Feature",
      "properties": {
        "norad_id": 44819,
        "name": "GAOFEN-12 01",
        "group": "resource",
        "lat": -41.9525427980864,
        "lon": 10.305346726387933,
        "alt_km": 634.7991192413438,
        "timestamp": "2025-12-23T05:02:11.681337+00:00",
        "meta_object_name": "GAOFEN-12 01",
        "meta_object_id": "2019-082A",
        "meta_epoch": "2025-12-23T00:21:44.322048",
        "meta_mean_motion": 14.80668831,
        "meta_eccentricity": 0.00020342,
        "meta_inclination": 97.8124,
        "meta_ra_of_asc_node": 3.0264,
        "meta_arg_of_pericenter": 185.9164,
        "meta_mean_anomaly": 174.2025,
        "meta_ephemeris_type": 0,
        "meta_classification_type": "U",
        "meta_norad_cat_id": 44819,
        "meta_element_set_no": 999,
        "meta_rev_at_epoch": 32802,
        "meta_bstar": 6.8611206e-05,
        "meta_mean_motion_dot": 4.76e-06,
        "meta_mean_motion_ddot": 0,
        "tle_line1": "1 44819U 19082A   25357.01509632  .00000476  00000+0  68611-4 0  9996",
        "tle_line2": "2 44819  97.8124   3.0264 0002034 185.9164 174.2025 14.80668831328028"
      },
      "geometry": {
        "type": "Point",
        "coordinates": [
          10.305346726387933,
          -41.9525427980864
        ]
      }
    },
    {
      "type": "Feature",
      "properties": {
        "norad_id": 44873,
        "name": "CSG-1",
        "group": "resource",
        "lat": 54.43473362861871,
        "lon": 9.545650643533497,
        "alt_km": 616.6031384910075,
        "timestamp": "2025-12-23T05:02:11.681347+00:00",
        "meta_object_name": "CSG-1",
        "meta_object_id": "2019-092A",
        "meta_epoch": "2025-12-22T23:36:54.410976",
        "meta_mean_motion": 14.82153616,
        "meta_eccentricity": 0.00014743,
        "meta_inclination": 97.8804,
        "meta_ra_of_asc_node": 178.1538,
        "meta_arg_of_pericenter": 85.5515,
        "meta_mean_anomaly": 274.5867,
        "meta_ephemeris_type": 0,
        "meta_classification_type": "U",
        "meta_norad_cat_id": 44873,
        "meta_element_set_no": 999,
        "meta_rev_at_epoch": 32537,
        "meta_bstar": 7.7068896e-05,
        "meta_mean_motion_dot": 5.61e-06,
        "meta_mean_motion_ddot": 0,
        "tle_line1": "1 44873U 19092A   25356.98396309  .00000561  00000+0  77069-4 0  9999",
        "tle_line2": "2 44873  97.8804 178.1538 0001474  85.5515 274.5867 14.82153616325378"
      },
      "geometry": {
        "type": "Point",
        "coordinates": [
          9.545650643533497,
          54.43473362861871
        ]
      }
    }
  ]
}